NORAD_CAT_ID,OBJECT_NAME,OBJECT_TYPE,EPOCH,MEAN_MOTION,ECCENTRICITY,INCLINATION,RA_OF_ASC_NODE,ARG_OF_PERICENTER,MEAN_ANOMALY,BSTAR,MEAN_MOTION_DOT,MEAN_MOTION_DDOT,TLE_LINE0,TLE_LINE1,TLE_LINE2,SEMIMAJOR_AXIS,PERIOD,APOGEE,PERIGEE,DECAYED
53783.0,STARLINK-4536,PAYLOAD,2022-10-20 06:00:00,15.73212565,0.0001171999999999,53.2141,73.153,71.5344,29.7742,5.422600000000001e-05,7.001e-05,0.0,0 STARLINK-4536,1 53783U 22111L   22293.25001157  .00007001  00000-0  54226-4 0  9993,2 53783  53.2141  73.1530 0001172  71.5344  29.7742 15.73212565  6103,6727.859,91.532,350.51300000000015,348.936,0.0
53783.0,STARLINK-4536,PAYLOAD,2022-10-20 14:00:01,15.73234386,0.0001104,53.2151,71.505,60.4978,129.7558,-0.00042093,-0.00059364,0.0,0 STARLINK-4536,1 53783U 22111L   22293.58334491 -.00059364  00000-0 -42093-3 0  9998,2 53783  53.2151  71.5050 0001104  60.4978 129.7558 15.73234386  1306,6727.797,91.531,350.405,348.9190000000001,0.0
53783.0,STARLINK-4536,PAYLOAD,2022-10-20 22:00:00,15.73258547,0.0001072,53.2158,69.8576,49.1753,230.009,-0.0012511,-0.00173067,0.0,0 STARLINK-4536,1 53783U 22111L   22293.91667824 -.00173067  00000-0 -12511-2 0  9992,2 53783  53.2158  69.8576 0001072  49.1753 230.0090 15.73258547  6201,6727.728,91.53,350.314,348.872,0.0
53783.0,STARLINK-4536,PAYLOAD,2022-10-21 06:00:00,15.73215207,0.0001199999999999,53.2152,68.2043,60.50899999999999,307.5863,-0.0005724,-0.00080241,0.0,0 STARLINK-4536,1 53783U 22111L   22294.25001157 -.00080241  00000-0 -57240-3 0  9991,2 53783  53.2152  68.2043 0001200  60.5090 307.5863 15.73215207  6250,6727.852,91.532,350.524,348.909,0.0
53783.0,STARLINK-4536,PAYLOAD,2022-10-21 14:00:01,15.73160019,0.0001591,53.2155,66.5565,58.9813,38.0788,0.00028514,0.00039518,0.0,0 STARLINK-4536,1 53783U 22111L   22294.58334491  .00039518  00000-0  28514-3 0  9998,2 53783  53.2155  66.5565 0001591  58.9813  38.0788 15.73160019  1303,6728.009,91.536,350.945,348.80400000000014,0.0
53783.0,STARLINK-4536,PAYLOAD,2022-10-21 22:00:00,15.73189063,0.0001644,53.2143,64.9066,54.6628,131.2479,0.0002972,0.00041276,0.0,0 STARLINK-4536,1 53783U 22111L   22294.91667824  .00041276  00000-0  29720-3 0  9998,2 53783  53.2143  64.9066 0001644  54.6628 131.2479 15.73189063  6368,6727.926,91.534,350.897,348.685,0.0
53783.0,STARLINK-4536,PAYLOAD,2022-10-22 14:00:01,15.73235509,0.0001446,53.2148,61.607,49.8036,313.971,5.4839e-05,7.094e-05,0.0,0 STARLINK-4536,1 53783U 22111L   22295.58334491  .00007094  00000-0  54839-4 0  9993,2 53783  53.2148  61.6070 0001446  49.8036 313.9710 15.73235509  6466,6727.794,91.531,350.63199999999995,348.686,0.0
53783.0,STARLINK-4536,PAYLOAD,2022-10-22 22:00:00,15.732734900000002,0.0001506999999999,53.2149,59.9575,41.7737,50.9885,-0.00017322,-0.00024936,0.0,0 STARLINK-4536,1 53783U 22111L   22295.91667824 -.00024936  00000-0 -17322-3 0  9990,2 53783  53.2149  59.9575 0001507  41.7737  50.9885 15.73273490  1304,6727.686,91.529,350.565,348.537,0.0
53783.0,STARLINK-4536,PAYLOAD,2022-10-23 08:00:01,15.73249821,0.0001629999999999,53.2156,57.8934,53.0916,240.9963,3.3497e-05,4.093e-05,0.0,0 STARLINK-4536,1 53783U 22111L   22296.33335648  .00004093  00000-0  33497-4 0  9995,2 53783  53.2156  57.8934 0001630  53.0916 240.9963 15.73249821  6584,6727.753000000002,91.53,350.715,348.522,0.0
53783.0,STARLINK-4536,PAYLOAD,2022-10-23 14:00:01,15.73233933,0.0001429,53.216,56.6581,38.1139,232.593,-0.00047951,-0.00067477,0.0,0 STARLINK-4536,1 53783U 22111L   22296.58334491 -.00067477  00000-0 -47951-3 0  9993,2 53783  53.2160  56.6581 0001429  38.1139 232.5930 15.73233933  6624,6727.7980000000025,91.531,350.625,348.702,0.0
53783.0,STARLINK-4536,PAYLOAD,2022-10-23 22:00:00,15.73381354,0.0001492,53.2161,55.0097,24.0457,335.5555,-0.0043238999999999,-0.00572364,0.0,0 STARLINK-4536,1 53783U 22111L   22296.91667824 -.00572364  00000-0 -43239-2 0  9999,2 53783  53.2161  55.0097 0001492  24.0457 335.5555 15.73381354  1305,6727.378000000002,91.523,350.247,348.23900000000015,0.0
53783.0,STARLINK-4536,PAYLOAD,2022-10-24 06:00:00,15.73063414,0.0001748,53.217,53.3574,37.1077,51.3905,-0.0065680999999999,-0.00831384,0.0,0 STARLINK-4536,1 53783U 22111L   22297.25001157 -.00831384  00000-0 -65681-2 0  9993,2 53783  53.2170  53.3574 0001748  37.1077  51.3905 15.73063414  6731,6728.285,91.541,351.326,348.974,0.0
53783.0,STARLINK-4536,PAYLOAD,2022-10-24 14:00:01,15.72449794,0.0001688,53.2171,51.7103,42.8935,134.0205,-0.009127,-0.0110975,0.0,0 STARLINK-4536,1 53783U 22111L   22297.58334491 -.01109750  00000-0 -91270-2 0  9998,2 53783  53.2171  51.7103 0001688  42.8935 134.0205 15.72449794  6786,6730.035,91.577,353.036,350.764,0.0
53783.0,STARLINK-4536,PAYLOAD,2022-10-24 22:00:00,15.71666486,0.0001546,53.2167,50.0637,37.2988,227.1405,-0.0098472,-0.01152493,0.0,0 STARLINK-4536,1 53783U 22111L   22297.91667824 -.01152493  00000-0 -98472-2 0  9997,2 53783  53.2167  50.0637 0001546  37.2988 227.1405 15.71666486  1301,6732.271,91.622,355.177,353.095,0.0
53783.0,STARLINK-4536,PAYLOAD,2022-10-25 06:00:00,15.70829802,0.0001409999999999,53.2173,48.4171,35.3656,315.6454,-0.0098886,-0.01120662,0.0,0 STARLINK-4536,1 53783U 22111L   22298.25001157 -.01120662  00000-0 -98886-2 0  9998,2 53783  53.2173  48.4171 0001410  35.3656 315.6454 15.70829802  6880,6734.661,91.671,357.476,355.577,0.0
53783.0,STARLINK-4536,PAYLOAD,2022-10-25 14:00:01,15.70032831,0.0001492,53.2175,46.7762,36.7365,39.848,-0.010448,-0.01142293,0.0,0 STARLINK-4536,1 53783U 22111L   22298.58334491 -.01142293  00000-0 -10448-1 0  9995,2 53783  53.2175  46.7762 0001492  36.7365  39.8480 15.70032831  1305,6736.94,91.718,359.81,357.8,0.0
53783.0,STARLINK-4536,PAYLOAD,2022-10-25 22:00:01,15.69208825,0.000184,53.217,45.1351,32.6943,128.5656,-0.01067,-0.01128805,0.0,0 STARLINK-4536,1 53783U 22111L   22298.91668981 -.01128805  00000-0 -10670-1 0  9996,2 53783  53.2170  45.1351 0001840  32.6943 128.5656 15.69208825  6998,6739.2980000000025,91.766,362.403,359.923,0.0
53783.0,STARLINK-4536,PAYLOAD,2022-10-26 14:00:01,15.67577119,0.0001854,53.2173,41.8601,25.6373,301.8346,-0.011347,-0.01141168,0.0,0 STARLINK-4536,1 53783U 22111L   22299.58334491 -.01141168  00000-0 -11347-1 0  9995,2 53783  53.2173  41.8601 0001854  25.6373 301.8346 15.67577119  1301,6743.974,91.862,367.089,364.589,0.0
53783.0,STARLINK-4536,PAYLOAD,2022-10-26 22:00:00,15.66761905,0.0001365999999999,53.2172,40.2246,40.4869,8.657,-0.0116969999999999,-0.01137901,0.0,0 STARLINK-4536,1 53783U 22111L   22299.91667824 -.01137901  00000-0 -11697-1 0  9999,2 53783  53.2172  40.2246 0001366  40.4869   8.6570 15.66761905  7147,6746.313,91.909,369.1,367.257,0.0
53783.0,STARLINK-4536,PAYLOAD,2022-10-27 14:00:01,15.65139156,0.0001535,53.2174,36.9615,45.1215,164.4935,-0.01256,-0.01143623,0.0,0 STARLINK-4536,1 53783U 22111L   22300.58335648 -.01143623  00000-0 -12560-1 0  9999,2 53783  53.2174  36.9615 0001535  45.1215 164.4935 15.65139156  1300,6750.976,92.005,373.877,371.804,0.0
53783.0,STARLINK-4536,PAYLOAD,2022-10-27 22:00:00,15.64321951,0.0001351999999999,53.2174,35.3317,45.7897,242.5002,-0.0129259999999999,-0.01139391,0.0,0 STARLINK-4536,1 53783U 22111L   22300.91667824 -.01139391  00000-0 -12926-1 0  9993,2 53783  53.2174  35.3317 0001352  45.7897 242.5002 15.64321951  1309,6753.3269999999975,92.053,376.105,374.278,0.0
53783.0,STARLINK-4536,PAYLOAD,2022-10-28 14:00:01,15.62695615,0.0001633,53.2176,32.0808,38.5656,44.3297,-0.0137949999999999,-0.01140065,0.0,0 STARLINK-4536,1 53783U 22111L   22301.58335648 -.01140065  00000-0 -13795-1 0  9998,2 53783  53.2176  32.0808 0001633  38.5656  44.3297 15.62695615  1308,6758.011,92.148,380.98,378.773,0.0
53783.0,STARLINK-4536,PAYLOAD,2022-10-28 22:00:01,15.61883406,0.0001815,53.217,30.4569,33.5812,125.1178,-0.014266,-0.01141867,0.0,0 STARLINK-4536,1 53783U 22111L   22301.91668981 -.01141867  00000-0 -14266-1 0  9999,2 53783  53.2170  30.4569 0001815  33.5812 125.1178 15.61883406  1301,6760.354,92.196,383.446,380.992,0.0
53783.0,STARLINK-4536,PAYLOAD,2022-10-29 12:00:00,15.60452962,0.0001823,53.2173,27.6221,36.9311,162.0093,-0.014937,-0.01131891,0.0,0 STARLINK-4536,1 53783U 22111L   22302.50001157 -.01131891  00000-0 -14937-1 0  9992,2 53783  53.2173  27.6221 0001823  36.9311 162.0093 15.60452962  1301,6764.485,92.281,387.583,385.117,0.0
53783.0,STARLINK-4536,PAYLOAD,2022-10-29 22:00:01,15.59438603,0.000167,53.2172,25.5997,30.4819,349.7636,-0.0155979999999999,-0.01136177,0.0,0 STARLINK-4536,1 53783U 22111L   22302.91668981 -.01136177  00000-0 -15598-1 0  9997,2 53783  53.2172  25.5997 0001670  30.4819 349.7636 15.59438603  1300,6767.418000000002,92.341,390.413,388.153,0.0
53783.0,STARLINK-4536,PAYLOAD,2022-10-30 00:00:00,15.59231989,0.0001748,53.2175,25.1953,33.6085,94.6384,-0.015636,-0.01130574,0.0,0 STARLINK-4536,1 53783U 22111L   22303.00001157 -.01130574  00000-0 -15636-1 0  9992,2 53783  53.2175  25.1953 0001748  33.6085  94.6384 15.59231989  7633,6768.016,92.353,391.064,388.698,0.0
53783.0,STARLINK-4536,PAYLOAD,2022-10-30 14:00:01,15.57809351,0.0001672,53.2176,22.3727,43.3282,119.6593,-0.016529,-0.01131942,0.0,0 STARLINK-4536,1 53783U 22111L   22303.58334491 -.01131942  00000-0 -16529-1 0  9997,2 53783  53.2176  22.3727 0001672  43.3282 119.6593 15.57809351  1305,6772.135,92.437,395.133,392.86800000000005,0.0
53783.0,STARLINK-4536,PAYLOAD,2022-10-30 22:00:01,15.5698652,0.000176,53.2173,20.7602,36.9374,196.057,-0.0168509999999999,-0.01119978,0.0,0 STARLINK-4536,1 53783U 22111L   22303.91668981 -.01119978  00000-0 -16851-1 0  9991,2 53783  53.2173  20.7602 0001760  36.9374 196.0570 15.56986520  1301,6774.521,92.486,397.579,395.194,0.0
53783.0,STARLINK-4536,PAYLOAD,2022-10-31 14:00:01,15.55381372,0.000129,53.2174,17.5453,45.9492,323.9094,-0.018431,-0.01150212,0.0,0 STARLINK-4536,1 53783U 22111L   22304.58334491 -.01150212  00000-0 -18431-1 0  9993,2 53783  53.2174  17.5453 0001290  45.9492 323.9094 15.55381372  1304,6779.181,92.582,401.921,400.172,0.0
